IRIDIUM 119             
1 42959U 17061E   25052.56114260  .00000033  00000+0  48047-5 0  9996
2 42959  86.3955 226.0429 0002337  96.1494 263.9968 14.34217573385927
IRIDIUM 107             
1 42960U 17061F   25052.51040109  .00000588  00000+0  20282-3 0  9997
2 42960  86.3955 226.0825 0002552  90.7495 269.3994 14.34218305385922
IRIDIUM 132             
1 42961U 17061G   25052.51673985  .00000199  00000+0  64037-4 0  9997
2 42961  86.3954 226.0629 0002181  89.4501 270.6945 14.34219399385920
IRIDIUM 136             
1 42962U 17061H   25052.54845667  .00000262  00000+0  86425-4 0  9995
2 42962  86.3956 226.0540 0002509  95.1623 264.9860 14.34215186385942
IRIDIUM 139             
1 42963U 17061J   25052.55479992 -.00000071  00000+0 -32377-4 0  9998
2 42963  86.3959 226.1056 0002302  89.4978 270.6481 14.34217602385958
IRIDIUM 125             
1 42964U 17061K   25052.54211516  .00000029  00000+0  34295-5 0  9997
2 42964  86.3959 226.1630 0002596 102.4399 257.7088 14.34217768385968
IRIDIUM 135             
1 43070U 17083A   25052.58600516  .00000020  00000+0  21562-6 0  9991
2 43070  86.4040 162.9076 0001829  98.3255 261.8148 14.34220041375265
IRIDIUM 138             
1 43071U 17083B   25052.54160444  .00000193  00000+0  61861-4 0  9994
2 43071  86.4029 162.6125 0002317 113.5708 246.5731 14.34214405375244
